COSMO-SKYMED 4          
1 37216U 10060A   23119.12773450 -.00000985  00000+0 -11722-3 0  9990
2 37216  97.8875 303.3144 0000958  67.8157 292.3122 14.82143955675011
SKYTERRA 1              
1 37218U 10061A   23118.66477757 -.00000116  00000+0  00000+0 0  9990
2 37218   2.8812  41.5688 0003817  10.9650 301.8481  1.00271752 45746
ZHONGXING-20A           
1 37234U 10064A   23118.82648244 -.00000185  00000+0  00000+0 0  9996
2 37234   4.2798 103.0954 0021795 234.0394 167.5233  0.98419268 45544
HYLAS 1                 
1 37237U 10065A   23119.10188459  .00000094  00000+0  00000+0 0  9997
2 37237   2.7158  86.7010 0001948 305.0810 235.5048  1.00270532 45521
INTELSAT 17 (IS-17)     
1 37238U 10065B   23118.88167404  .00000000  00000+0  00000+0 0  9996
2 37238   0.0172 230.1087 0002448 165.2494 204.6264  1.00270039 45437
BEIDOU-2 IGSO-2         
1 37256U 10068A   23119.21293829 -.00000193  00000+0  00000+0 0  9992
2 37256  49.6432 285.8490 0024515 200.2658 275.9272  1.00267451 45312
EUTELSAT KA-SAT 9A      
1 37258U 10069A   23119.10188459  .00000063  00000+0  00000+0 0  9990
2 37258   0.0790 296.9581 0004317 168.5119 157.0373  1.00270500 45335
HISPASAT 30W-5          
1 37264U 10070A   23118.39222453 -.00000216  00000+0  00000+0 0  9993
2 37264   0.0612  96.4530 0004014 329.2116 261.6584  1.00271260 41694
KOREASAT 6              
1 37265U 10070B   23118.99479815 -.00000361  00000+0  00000+0 0  9997
2 37265   0.0383 111.2588 0001184 315.4909 264.0586  1.00275536 45201
BEIDOU-2 IGSO-3         
1 37384U 11013A   23118.60931294 -.00000185  00000+0  00000+0 0  9993
2 37384  60.7543  51.1514 0022304 186.0187 305.7218  1.00271532 44185
RESOURCESAT-2           
1 37387U 11015A   23119.13629947  .00000350  00000+0  17884-3 0  9991
2 37387  98.6233 190.2657 0003398 226.1539 133.9358 14.21670087624013
YOUTHSAT                
1 37388U 11015B   23118.63040705  .00000287  00000+0  14076-3 0  9994
2 37388  98.3026 135.8544 0016038 105.8527  41.8076 14.24568900625003
X-SAT                   
1 37389U 11015C   23119.10662181  .00000193  00000+0  10075-3 0  9997
2 37389  98.3055 140.8328 0015371 104.5675 255.7221 14.24516176625142
INTELSAT NEW DAWN       
1 37392U 11016A   23118.85304935  .00000156  00000+0  00000+0 0  9995
2 37392   0.0106 243.6776 0000781 130.9450 181.8159  1.00273003 44036
YAHSAT 1A               
1 37393U 11016B   23118.08313223  .00000100  00000+0  00000+0 0  9990
2 37393   0.0180 243.4755 0001854 190.7072 224.0398  1.00272525 30915
SBIRS GEO-1 (USA 230)   
1 37481U 11019A   23119.05651080 -.00000001  00000+0  00000+0 0  9996
2 37481   2.2802  38.2269 0001836 359.2664 265.3060  1.00272262 43856
TELSTAR 14R             
1 37602U 11021A   23118.45732240 -.00000279  00000+0  00000+0 0  9992
2 37602   0.0127 248.0022 0002485 118.8412 310.9624  1.00269222 44346
GSAT-8                  
1 37605U 11022A   23118.58799446  .00000085  00000+0  00000+0 0  9995
2 37605   0.0417  79.4524 0004743 229.6167 173.9802  1.00272504 41733
ST-2                    
1 37606U 11022B   23119.06095620 -.00000210  00000+0  00000+0 0  9994
2 37606   0.0127 204.6141 0001570 205.7875 276.3251  1.00271698 43769
CHINASAT 10 (ZX 10)     
1 37677U 11026A   23118.87619997 -.00000351  00000+0  00000+0 0  9999
2 37677   0.0531 277.0716 0001677 249.1068 116.3658  1.00272336 43485
SJ-11-03                
1 37730U 11030A   23119.21797980  .00000910  00000+0  19264-3 0  9998
2 37730  97.8136 120.8256 0010027  57.8110 302.4057 14.61392916629776
TIANLIAN 1-02           
1 37737U 11032A   23118.86143605 -.00000047  00000+0  00000+0 0  9992
2 37737   2.3877  72.4285 0085689   0.6846 260.6027  1.00270881 43236
GLOBALSTAR M083         
1 37739U 11033A   23118.57229354 -.00000068  00000+0  20087-3 0  9993
2 37739  51.9853 261.3592 0000398 113.4711 268.6093 12.62266003548276
GLOBALSTAR M088         
1 37740U 11033B   23118.38550286 -.00000090  00000+0  76877-4 0  9999
2 37740  51.9713 168.0776 0000176  30.7040 342.2639 12.62268576543794
GLOBALSTAR M091         
1 37741U 11033C   23118.75023425 -.00000094  00000+0  53719-4 0  9995
2 37741  51.9969 129.1240 0000399   9.9458 160.8145 12.62274066544888
GLOBALSTAR M085         
1 37742U 11033D   23119.17750212 -.00000093  00000+0  58726-4 0  9996
2 37742  51.9863  79.5500 0000525  35.5665 337.9954 12.62269137545682
GLOBALSTAR M081         
1 37743U 11033E   23118.36642522 -.00000099  00000+0  28104-4 0  9994
2 37743  51.9949  84.3266 0000690  41.0032 124.1171 12.62267328545232
GLOBALSTAR M089         
1 37744U 11033F   23118.53926682 -.00000090  00000+0  79409-4 0  9991
2 37744  51.9950  38.1748 0000908  82.6217 329.0080 12.62268465546100
GSAT-12                 
1 37746U 11034A   23118.79580045 -.00000074  00000+0  00000+0 0  9999
2 37746   2.3083  91.5349 0001429 101.7954 146.3465  0.98862170 43466
SES-3                   
1 37748U 11035A   23118.66442890 -.00000102  00000+0  00000+0 0  9995
2 37748   0.0241 329.9483 0002395  66.4261 316.1878  1.00272173 43217
KAZSAT-2                
1 37749U 11035B   23118.41541035 -.00000199  00000+0  00000+0 0  9996
2 37749   0.0309 279.5565 0001099  19.3145 153.3256  1.00273296 41904
NAVSTAR 66 (USA 232)    
1 37753U 11036A   23118.35467028 -.00000105  00000+0  00000+0 0  9991
2 37753  56.7153  16.4670 0125650  54.1168 126.5344  2.00567584 86299
BEIDOU-2 IGSO-4         
1 37763U 11038A   23119.12271729 -.00000034  00000+0  00000+0 0  9992
2 37763  54.4844 175.8681 0108689 228.9684 309.4985  1.00258337 43165
SJ-11-02                
1 37765U 11039A   23118.89731089  .00000368  00000+0  83054-4 0  9992
2 37765  98.4146 340.4859 0009952 235.8587 124.1645 14.62149339626557
ASTRA 1N                
1 37775U 11041A   23118.33038147  .00000120  00000+0  00000+0 0  9991
2 37775   0.0795  57.3537 0005476 347.9732 308.8672  1.00273436 33038
BSAT-3C (JCSAT-110R)    
1 37776U 11041B   23118.57862650 -.00000351  00000+0  00000+0 0  9999
2 37776   0.0500  77.6753 0000373  34.8542  62.0297  1.00271490 38990
PAKSAT-1R               
1 37779U 11042A   23119.07827074  .00000155  00000+0  00000+0 0  9991
2 37779   0.0373  75.1787 0004123 348.6510 219.1725  1.00266432 42793
HAIYANG-2A              
1 37781U 11043A   23119.03788069  .00000001  00000+0  44031-4 0  9998
2 37781  99.3215 124.4604 0001688  92.8412 267.2933 13.78753018589127
NIGERIASAT-2            
1 37789U 11044B   23119.22734567  .00000488  00000+0  10446-3 0  9993
2 37789  97.7951 129.4374 0012040 118.9384 241.3026 14.62666035624037
NIGERIASAT-X            
1 37790U 11044C   23119.04188756  .00000412  00000+0  96842-4 0  9990
2 37790  97.8528 149.9859 0011799 347.8824  12.2091 14.59010019623270
RASAT                   
1 37791U 11044D   23119.22073369  .00001124  00000+0  21577-3 0  9997
2 37791  98.0846 212.2510 0020889 211.4602 148.5356 14.65480091625351
APRIZESAT 5             
1 37792U 11044E   23119.13839453  .00001152  00000+0  16904-3 0  9991
2 37792  98.2830   8.1685 0058358  77.5834 283.1897 14.76444540629702
APRIZESAT 6             
1 37793U 11044F   23118.39106141  .00000964  00000+0  15486-3 0  9994
2 37793  98.3611 345.5334 0047065 136.3441  35.9159 14.73343865628226
CHINASAT 1A (ZX 1A)     
1 37804U 11047A   23118.13590975  .00000006  00000+0  00000+0 0  9993
2 37804   0.7518  93.2506 0003940 291.5090 245.8442  1.00078229 42578
SES-2                   
1 37809U 11049A   23118.61883154 -.00000195  00000+0  00000+0 0  9997
2 37809   0.0062  42.4741 0002522 348.3741 321.2670  1.00272864 42467
ARABSAT-5C              
1 37810U 11049B   23118.33046863  .00000123  00000+0  00000+0 0  9996
2 37810   0.0606  34.3431 0002358  79.5162 241.1397  1.00272868 42567
EUTELSAT 7 WEST A       
1 37816U 11051A   23118.82691828 -.00000059  00000+0  00000+0 0  9995
2 37816   0.0696  26.2084 0003092 130.7349 349.9781  1.00272189 42480
TACSAT 4                
1 37818U 11052A   23118.49635450  .00002964  00000+0  15678-2 0  9996
2 37818  62.8474 175.3153 4676004 247.8265  57.1736  6.03930562254921
QUETZSAT 1              
1 37826U 11054A   23118.81279758 -.00000241  00000+0  00000+0 0  9995
2 37826   0.0507  77.7208 0002444 329.8304  24.5714  1.00270723 42612
INTELSAT 18 (IS-18)     
1 37834U 11056A   23118.79248819  .00000053  00000+0  00000+0 0  9997
2 37834   0.0138 291.4060 0001935  99.3996 290.9824  1.00271209 42354
EUTELSAT 16A            
1 37836U 11057A   23118.83931071  .00000105  00000+0  00000+0 0  9992
2 37836   0.0722  16.8903 0005106  24.4548 133.3389  1.00272438 42302
JUGNU                   
1 37839U 11058B   23119.19310741  .00000530  00000+0  13946-3 0  9990
2 37839  19.9614  60.1810 0018878  39.1893  96.2253 14.12940180596954
SRMSAT                  
1 37841U 11058D   23118.80216017  .00000490  00000+0  12393-3 0  9991
2 37841  19.9703 148.6039 0011717 208.2413 308.1234 14.10880716596043
VIASAT-1                
1 37843U 11059A   23118.24094160 -.00000024  00000+0  00000+0 0  9997
2 37843   0.0188 248.8963 0002161 148.0866 150.6041  1.00272873 35833
GSAT0101 (GALILEO-PFM)  
1 37846U 11060A   23117.07510995 -.00000103  00000+0  00000+0 0  9999
2 37846  57.0849  12.8245 0004287  24.1789 335.8723  1.70476155 71697
GSAT0102 (GALILEO-FM2)  
1 37847U 11060B   23117.29824589 -.00000103  00000+0  00000+0 0  9991
2 37847  57.0857  12.8182 0004572 355.2206 188.3383  1.70475534 71699
SUOMI NPP               
1 37849U 11061A   23119.13769677  .00000113  00000+0  74284-4 0  9995
2 37849  98.7015  58.6962 0001532  80.2606 105.4658 14.19570914595977
M-CUBED & EXP-1 PRIME   
1 37855U 11061F   23118.41094987  .00020398  00000+0  68047-3 0  9993
2 37855 101.7035  52.3125 0124728 191.8290 167.9995 15.23932215628970
COSMOS 2476 [GLONASS-M] 
1 37867U 11064A   23118.37453876  .00000077  00000+0  00000+0 0  9993
2 37867  64.7294 111.7135 0023939 241.4208  16.4289  2.13101737 89395
